{
  "56329": {
    "noradId": "56329",
    "tle": [
      "1 56329C 23058N   25308.82409722  .00005296  00000+0  36777-3 0  3083",
      "2 56329  97.6013 308.1686 0002206  85.6812 136.3294 15.05641571    19"
    ]
  },
  "56331": {
    "noradId": "56331",
    "tle": [
      "1 56331C 23058Q   25308.82409722  .00006499  00000+0  50673-3 0  3083",
      "2 56331  97.6028 307.9525 0002889  76.1104 343.3198 15.01271091    18"
    ]
  },
  "56332": {
    "noradId": "56332",
    "tle": [
      "1 56332C 23058R   25308.80604167 -.00015011  00000+0 -11707-2 0  3088",
      "2 56332  97.6037 307.9072 0001661  89.9834 171.9930 15.01284672    13"
    ]
  },
  "56333": {
    "noradId": "56333",
    "tle": [
      "1 56333C 23058S   25308.80256944  .00004684  00000+0  32534-3 0  3089",
      "2 56333  97.6014 308.0841 0001960  91.8036 223.6250 15.05637572    18"
    ]
  },
  "56334": {
    "noradId": "56334",
    "tle": [
      "1 56334C 23058T   25308.80326389  .00006477  00000+0  44985-3 0  3086",
      "2 56334  97.6016 308.2029 0001616  89.7422 154.3875 15.05637595    12"
    ]
  },
  "56335": {
    "noradId": "56335",
    "tle": [
      "1 56335C 23058U   25308.80604167  .00005039  00000+0  34994-3 0  3082",
      "2 56335  97.6009 308.1763 0001469  89.5217  94.6667 15.05640877    17"
    ]
  },
  "56336": {
    "noradId": "56336",
    "tle": [
      "1 56336C 23058V   25308.80534722  .00002331  00000+0  18185-3 0  3088",
      "2 56336  97.6032 307.9254 0002276  88.1576 210.0708 15.01255677    12"
    ]
  },
  "56337": {
    "noradId": "56337",
    "tle": [
      "1 56337C 23058W   25308.80118056  .00004138  00000+0  32279-3 0  3084",
      "2 56337  97.6015 307.9447 0003441  62.4799 261.9294 15.01254404    17"
    ]
  },
  "56338": {
    "noradId": "56338",
    "tle": [
      "1 56338C 23058X   25308.80673611  .00004992  00000+0  38943-3 0  3080",
      "2 56338  97.6021 307.9449 0003400  73.2949 272.4361 15.01253057    14"
    ]
  },
  "56339": {
    "noradId": "56339",
    "tle": [
      "1 56339C 23058Y   25308.80187500  .00003528  00000+0  27521-3 0  3082",
      "2 56339  97.6014 307.9560 0003478  48.3657 311.1236 15.01251105    19"
    ]
  },
  "56340": {
    "noradId": "56340",
    "tle": [
      "1 56340C 23058Z   25308.80326389  .00001388  00000+0  96374-4 0  3089",
      "2 56340  97.6029 308.0999 0001990  90.9887 258.1884 15.05644219    15"
    ]
  },
  "56341": {
    "noradId": "56341",
    "tle": [
      "1 56341C 23058AA  25308.80743056  .00004301  00000+0  33546-3 0  3083",
      "2 56341  97.6017 307.9542 0004237  49.8210 319.6712 15.01253889    13"
    ]
  },
  "56342": {
    "noradId": "56342",
    "tle": [
      "1 56342C 23058AB  25308.80395833  .00004162  00000+0  28906-3 0  3089",
      "2 56342  97.6012 308.1562 0001847  92.1058  35.8038 15.05636575    18"
    ]
  },
  "56343": {
    "noradId": "56343",
    "tle": [
      "1 56343C 23058AC  25308.82062500  .00037847  00000+0  26312-2 0  3088",
      "2 56343  97.6026 308.1115 0001594  82.9903 345.2504 15.05568053    14"
    ]
  },
  "56344": {
    "noradId": "56344",
    "tle": [
      "1 56344C 23058AD  25308.81993056  .00006090  00000+0  42305-3 0  3084",
      "2 56344  97.6010 308.1967 0001585  89.7665 184.6476 15.05628786    16"
    ]
  },
  "56345": {
    "noradId": "56345",
    "tle": [
      "1 56345C 23058AE  25308.81993056  .00003936  00000+0  30693-3 0  3088",
      "2 56345  97.6005 307.9878 0001848  92.0433  44.9101 15.01268263    10"
    ]
  },
  "56346": {
    "noradId": "56346",
    "tle": [
      "1 56346C 23058AF  25308.80395833  .00001011  00000+0  78851-4 0  3088",
      "2 56346  97.6008 307.9660 0002384  60.0897 330.6547 15.01258903    17"
    ]
  },
  "56347": {
    "noradId": "56347",
    "tle": [
      "1 56347C 23058AG  25308.80118056  .00003848  00000+0  26721-3 0  3087",
      "2 56347  97.6016 308.1432 0001933  92.3655 350.5033 15.05643322    14"
    ]
  },
  "56348": {
    "noradId": "56348",
    "tle": [
      "1 56348C 23058AH  25308.80743056 -.00012230  00000+0 -95374-3 0  3089",
      "2 56348  97.6010 307.9647 0003990  57.4982 340.6519 15.01278313    13"
    ]
  },
  "56349": {
    "noradId": "56349",
    "tle": [
      "1 56349C 23058AJ  25308.80256944  .00003104  00000+0  24216-3 0  3080",
      "2 56349  97.6016 307.9838 0001853  90.2660 352.9855 15.01252006    16"
    ]
  },
  "56350": {
    "noradId": "56350",
    "tle": [
      "1 56350C 23058AK  25308.80604167  .00004305  00000+0  29897-3 0  3080",
      "2 56350  97.6010 308.1672 0001828  90.2369  63.9591 15.05638213    17"
    ]
  },
  "56351": {
    "noradId": "56351",
    "tle": [
      "1 56351C 23058AL  25308.80673611  .00004246  00000+0  29488-3 0  3081",
      "2 56351  97.6033 308.1100 0001967  92.8838 290.0928 15.05638558    11"
    ]
  },
  "56352": {
    "noradId": "56352",
    "tle": [
      "1 56352C 23058AM  25308.80534722 -.00001500  00000+0 -11703-3 0  3084",
      "2 56352  97.6014 307.9790 0002484  88.6895 349.5831 15.01259033    10"
    ]
  },
  "56353": {
    "noradId": "56353",
    "tle": [
      "1 56353C 23058AN  25308.80534722  .00004262  00000+0  33250-3 0  3082",
      "2 56353  97.6023 308.0176 0002059 156.9713  21.2988 15.01254850    16"
    ]
  },
  "56354": {
    "noradId": "56354",
    "tle": [
      "1 56354C 23058AP  25308.80534722  .00006041  00000+0  41955-3 0  3081",
      "2 56354  97.6014 308.0642 0001687  88.4756 182.0022 15.05637676    17"
    ]
  },
  "56355": {
    "noradId": "56355",
    "tle": [
      "1 56355C 23058AQ  25308.80395833  .00003287  00000+0  25639-3 0  3080",
      "2 56355  97.6020 308.0005 0000401 156.0957 334.6654 15.01255848    15"
    ]
  },
  "56356": {
    "noradId": "56356",
    "tle": [
      "1 56356C 23058AR  25308.80256944  .00002093  00000+0  14535-3 0  3087",
      "2 56356  97.6031 308.1109 0002101  92.7393 282.6716 15.05643678    10"
    ]
  },
  "56357": {
    "noradId": "56357",
    "tle": [
      "1 56357C 23058AS  25308.80326389 -.00000860  00000+0 -59743-4 0  3082",
      "2 56357  97.6007 308.1898 0001170  86.8434 112.2637 15.05655551    17"
    ]
  },
  "56358": {
    "noradId": "56358",
    "tle": [
      "1 56358C 23058AT  25308.80465278  .00002852  00000+0  22258-3 0  3085",
      "2 56358  97.6018 307.9933 0001096 118.0938 356.4275 15.01245907    17"
    ]
  },
  "56359": {
    "noradId": "56359",
    "tle": [
      "1 56359C 23058AU  25308.80673611  .00003116  00000+0  24309-3 0  3081",
      "2 56359  97.6021 308.0067 0001199 150.7974   3.6456 15.01248967    10"
    ]
  },
  "56360": {
    "noradId": "56360",
    "tle": [
      "1 56360C 23058AV  25308.80395833  .00004061  00000+0  28190-3 0  3082",
      "2 56360  97.6027 308.1373 0002384  86.1155 356.7073 15.05651743    10"
    ]
  },
  "56361": {
    "noradId": "56361",
    "tle": [
      "1 56361C 23058AW  25308.80465278  .00003502  00000+0  27318-3 0  3084",
      "2 56361  97.6022 308.0092 0002204 169.2234 345.2930 15.01251694    17"
    ]
  },
  "56362": {
    "noradId": "56362",
    "tle": [
      "1 56362C 23058AX  25308.82548611  .00004342  00000+0  30166-3 0  3088",
      "2 56362  97.6033 308.1444 0002053  88.4322  81.1930 15.05625597    11"
    ]
  },
  "56374": {
    "noradId": "56374",
    "tle": [
      "1 56374C 23061A   25308.82062500  .00006953  00000+0  51334-3 0  3083",
      "2 56374  43.0012 156.1855 0001649 254.4209 285.5004 15.02505001    18"
    ]
  },
  "56375": {
    "noradId": "56375",
    "tle": [
      "1 56375C 23061B   25308.82270833 -.00001065  00000+0 -78611-4 0  3083",
      "2 56375  43.0012 156.1016 0001287 256.9909 324.1721 15.02531992    14"
    ]
  },
  "56376": {
    "noradId": "56376",
    "tle": [
      "1 56376C 23061C   25308.82340278  .00006539  00000+0  48249-3 0  3087",
      "2 56376  43.0015 155.8263 0001198 272.6912  66.3846 15.02527943    12"
    ]
  },
  "56377": {
    "noradId": "56377",
    "tle": [
      "1 56377C 23061D   25308.82409722  .00006256  00000+0  46165-3 0  3089",
      "2 56377  43.0012 156.0510 0001182 258.2306 348.4818 15.02525267    18"
    ]
  },
  "56378": {
    "noradId": "56378",
    "tle": [
      "1 56378C 23061E   25308.82131944  .00004025  00000+0  29703-3 0  3089",
      "2 56378  43.0014 156.1165 0001288 264.0995 303.5202 15.02530169    10"
    ]
  },
  "56379": {
    "noradId": "56379",
    "tle": [
      "1 56379C 23061F   25308.82270833  .00006662  00000+0  49152-3 0  3080",
      "2 56379  43.0012 155.9144 0001323 262.7240  36.5643 15.02529155    16"
    ]
  },
  "56381": {
    "noradId": "56381",
    "tle": [
      "1 56381C 23061H   25308.82131944  .00001952  00000+0  14402-3 0  3089",
      "2 56381  43.0012 156.0075 0001113 269.1347 346.5847 15.02528191    19"
    ]
  },
  "56382": {
    "noradId": "56382",
    "tle": [
      "1 56382C 23061J   25308.82270833  .00000250  00000+0  18435-4 0  3082",
      "2 56382  43.0011 155.8372 0001230 267.2799  62.0502 15.02536907    18"
    ]
  },
  "56383": {
    "noradId": "56383",
    "tle": [
      "1 56383C 23061K   25308.81715278  .00007138  00000+0  52671-3 0  3080",
      "2 56383  43.0011 155.8970 0001277 260.9628  26.2664 15.02528499    13"
    ]
  },
  "56384": {
    "noradId": "56384",
    "tle": [
      "1 56384C 23061L   25308.81993056  .00005852  00000+0  43182-3 0  3081",
      "2 56384  43.0012 155.7535 0001320 262.7531  93.6209 15.02526710    10"
    ]
  },
  "56385": {
    "noradId": "56385",
    "tle": [
      "1 56385C 23061M   25308.82062500 -.00003740  00000+0 -27600-3 0  3087",
      "2 56385  43.0008 155.7926 0001268 264.3646  77.7533 15.02538514    14"
    ]
  },
  "56386": {
    "noradId": "56386",
    "tle": [
      "1 56386C 23061N   25308.80256944  .00005731  00000+0  42275-3 0  3088",
      "2 56386  43.0012 155.7592 0001249 268.7355  29.6059 15.02541545    10"
    ]
  }
}